[
    {
        "CCSDS_OMM_VERS": "3.0",
        "COMMENT": "GENERATED VIA SPACE-TRACK.ORG API",
        "CREATION_DATE": "2025-05-04T02:26:54",
        "ORIGINATOR": "18 SPCS",
        "OBJECT_NAME": "BEIDOU 3 IGSO-3",
        "OBJECT_ID": "2019-073A",
        "CENTER_NAME": "EARTH",
        "REF_FRAME": "TEME",
        "TIME_SYSTEM": "UTC",
        "MEAN_ELEMENT_THEORY": "SGP4",
        "EPOCH": "2025-05-02T20:21:59.371776",
        "MEAN_MOTION": "1.00259045",
        "ECCENTRICITY": "0.00437330",
        "INCLINATION": "55.5056",
        "RA_OF_ASC_NODE": "285.3186",
        "ARG_OF_PERICENTER": "182.0464",
        "MEAN_ANOMALY": "177.8521",
        "EPHEMERIS_TYPE": "0",
        "CLASSIFICATION_TYPE": "U",
        "NORAD_CAT_ID": "44709",
        "ELEMENT_SET_NO": "999",
        "REV_AT_EPOCH": "2034",
        "BSTAR": "0.00000000000000",
        "MEAN_MOTION_DOT": "-0.00000194",
        "MEAN_MOTION_DDOT": "0.0000000000000",
        "SEMIMAJOR_AXIS": "42168.304",
        "PERIOD": "1436.279",
        "APOAPSIS": "35974.583",
        "PERIAPSIS": "35605.754",
        "OBJECT_TYPE": "PAYLOAD",
        "RCS_SIZE": "LARGE",
        "COUNTRY_CODE": "PRC",
        "LAUNCH_DATE": "2019-11-04",
        "SITE": "XSC",
        "DECAY_DATE": null,
        "FILE": "4718307",
        "GP_ID": "286799968",
        "TLE_LINE0": "0 BEIDOU 3 IGSO-3",
        "TLE_LINE1": "1 44709U 19073A   25122.84860384 -.00000194  00000-0  00000-0 0  9992",
        "TLE_LINE2": "2 44709  55.5056 285.3186 0043733 182.0464 177.8521  1.00259045 20346"
    }
]